H1 CPF 01  gfz 2022 12 03 01  8371 terrasarx 
H2 0702601  6201 31698    2022 12 03 00 59 42 2022 12 08 00 00 42   120 1 1  0 0 0
H9
10 0 59916  69822.000000  0   -6251486.521   2058803.352   2026131.429
10 0 59916  69942.000000  0   -6391443.920   2297403.253   1146433.315
10 0 59916  70062.000000  0   -6415815.105   2497274.262    246545.636
10 0 59916  70182.000000  0   -6324938.139   2652916.873   -657684.289
10 0 59916  70302.000000  0   -6121275.743   2759639.889  -1550345.463
10 0 59916  70422.000000  0   -5809352.359   2813679.008  -2415751.713
10 0 59916  70542.000000  0   -5395649.317   2812296.154  -3238725.410
10 0 59916  70662.000000  0   -4888461.452   2753856.044  -4004867.774
10 0 59916  70782.000000  0   -4297720.812   2637879.619  -4700810.989
10 0 59916  70902.000000  0   -3634791.725   2465073.044  -5314447.337
10 0 59916  71022.000000  0   -2912243.701   2237332.715  -5835131.244
10 0 59916  71142.000000  0   -2143608.414   1957726.849  -6253854.221
10 0 59916  71262.000000  0   -1343122.550   1630453.205  -6563390.178
10 0 59916  71382.000000  0    -525464.719   1260774.594  -6758407.634
10 0 59916  71502.000000  0     294509.431    854933.849  -6835551.613
10 0 59916  71622.000000  0    1102029.837    420050.270  -6793495.383
10 0 59916  71742.000000  0    1882672.886    -36002.745  -6632962.555
10 0 59916  71862.000000  0    2622613.285   -504736.902  -6356714.775
10 0 59916  71982.000000  0    3308864.533   -977202.500  -5969509.962
10 0 59916  72102.000000  0    3929504.681  -1444154.370  -5478027.863
10 0 59916  72222.000000  0    4473884.557  -1896228.429  -4890766.750
10 0 59916  72342.000000  0    4932815.760  -2324127.311  -4217907.699
10 0 59916  72462.000000  0    5298732.861  -2718809.760  -3471148.385
10 0 59916  72582.000000  0    5565827.746  -3071680.426  -2663508.155
10 0 59916  72702.000000  0    5730152.018  -3374775.919  -1809105.431
10 0 59916  72822.000000  0    5789683.587  -3620942.418   -922912.077
10 0 59916  72942.000000  0    5744356.398  -3804001.148    -20488.687
10 0 59916  73062.000000  0    5596050.815  -3918896.322    882294.274
10 0 59916  73182.000000  0    5348544.967  -3961822.977   1769543.733
10 0 59916  73302.000000  0    5007426.420  -3930328.566   2625633.988
10 0 59916  73422.000000  0    4579967.107  -3823386.159   3435489.576
10 0 59916  73542.000000  0    4074966.755  -3641438.798   4184856.809
10 0 59916  73662.000000  0    3502567.871  -3386414.395   4860559.252
10 0 59916  73782.000000  0    2874044.878  -3061709.285   5450730.927
10 0 59916  73902.000000  0    2201576.454  -2672141.537   5945022.528
10 0 59916  74022.000000  0    1498004.099  -2223876.249   6334778.789
10 0 59916  74142.000000  0     776583.132  -1724324.811   6613183.869
10 0 59916  74262.000000  0      50730.967  -1182019.536   6775374.471
10 0 59916  74382.000000  0    -666222.593   -606465.988   6818519.342
10 0 59916  74502.000000  0   -1361279.057     -7975.811   6741864.903
10 0 59916  74622.000000  0   -2022005.870    602517.575   6546747.655
10 0 59916  74742.000000  0   -2636758.142   1213657.956   6236572.490
10 0 59916  74862.000000  0   -3194884.455   1813876.524   5816757.196
10 0 59916  74982.000000  0   -3686913.792   2391610.438   5294644.243
10 0 59916  75102.000000  0   -4104720.927   2935526.969   4679378.865
10 0 59916  75222.000000  0   -4441666.111   3434748.064   3981754.083
10 0 59916  75342.000000  0   -4692706.936   3879070.557   3214025.011
10 0 59916  75462.000000  0   -4854478.436   4259177.955   2389694.725
10 0 59916  75582.000000  0   -4925340.156   4566839.708   1523275.653
10 0 59916  75702.000000  0   -4905388.042   4795091.400    630028.692
10 0 59916  75822.000000  0   -4796431.207   4938389.718   -274312.558
10 0 59916  75942.000000  0   -4601935.039   4992741.185  -1173827.288
10 0 59916  76062.000000  0   -4326928.464   4955799.821  -2052698.607
10 0 59916  76182.000000  0   -3977879.729   4826930.087  -2895499.292
10 0 59916  76302.000000  0   -3562545.522   4607234.356  -3687468.963
10 0 59916  76422.000000  0   -3089795.559   4299544.722  -4414773.929
10 0 59916  76542.000000  0   -2569419.744   3908381.089  -5064745.326
10 0 59916  76662.000000  0   -2011923.392   3439878.516  -5626092.600
10 0 59916  76782.000000  0   -1428313.982   2901684.602  -6089091.658
10 0 59916  76902.000000  0    -829883.325   2302827.991  -6445743.169
10 0 59916  77022.000000  0    -227990.713   1653562.853  -6689898.707
10 0 59916  77142.000000  0     366148.659    965192.637  -6817356.052
10 0 59916  77262.000000  0     941667.282    249875.754  -6825924.376
10 0 59916  77382.000000  0    1488240.285   -479585.269  -6715458.325
10 0 59916  77502.000000  0    1996265.966  -1209967.937  -6487858.580
10 0 59916  77622.000000  0    2457030.625  -1927863.025  -6147042.795
10 0 59916  77742.000000  0    2862856.480  -2619914.630  -5698885.614
10 0 59916  77862.000000  0    3207230.677  -3273065.699  -5151129.503
10 0 59916  77982.000000  0    3484913.310  -3874805.598  -4513261.013
10 0 59916  78102.000000  0    3692019.438  -4413410.621  -3796355.720
10 0 59916  78222.000000  0    3826076.476  -4878175.739  -3012896.491
10 0 59916  78342.000000  0    3886055.998  -5259634.217  -2176563.736
10 0 59916  78462.000000  0    3872375.897  -5549758.404  -1301998.660
10 0 59916  78582.000000  0    3786873.397  -5742134.579   -404545.768
10 0 59916  78702.000000  0    3632748.767  -5832108.816    500021.551
10 0 59916  78822.000000  0    3414480.431  -5816898.599   1395785.154
10 0 59916  78942.000000  0    3137714.744  -5695667.668   2266971.890
10 0 59916  79062.000000  0    2809130.616  -5469559.448   3098240.597
10 0 59916  79182.000000  0    2436284.331  -5141691.547   3874958.665
10 0 59916  79302.000000  0    2027439.586  -4717110.973   4583464.459
10 0 59916  79422.000000  0    1591385.697  -4202710.598   5211310.194
10 0 59916  79542.000000  0    1137249.617  -3607109.770   5747480.427
10 0 59916  79662.000000  0     674304.023  -2940500.987   6182582.719
10 0 59916  79782.000000  0     211777.702  -2214468.085   6509005.400
10 0 59916  79902.000000  0    -241327.412  -1441780.338   6721043.599
10 0 59916  80022.000000  0    -676409.953   -636166.114   6814993.830
10 0 59916  80142.000000  0   -1085431.188    187932.557   6789215.443
10 0 59916  80262.000000  0   -1461062.904   1015618.919   6644157.201
10 0 59916  80382.000000  0   -1796818.258   1831809.974   6382349.664
10 0 59916  80502.000000  0   -2087164.276   2621510.492   6008363.995
10 0 59916  80622.000000  0   -2327613.781   3370088.992   5528736.863
10 0 59916  80742.000000  0   -2514795.517   4063550.751   4951862.676
10 0 59916  80862.000000  0   -2646502.281   4688804.463   4287853.425
10 0 59916  80982.000000  0   -2721714.664   5233916.454   3548366.088
10 0 59916  81102.000000  0   -2740599.870   5688346.750   2746399.845
10 0 59916  81222.000000  0   -2704485.352   6043160.679   1896066.828
10 0 59916  81342.000000  0   -2615808.218   6291211.823   1012340.673
10 0 59916  81462.000000  0   -2478040.717   6427291.478    110787.160
10 0 59916  81582.000000  0   -2295594.143   6448240.646   -792717.753
10 0 59916  81702.000000  0   -2073703.777   6353021.763  -1682277.497
10 0 59916  81822.000000  0   -1818295.907   6142744.556  -2542266.325
10 0 59916  81942.000000  0   -1535841.344   5820646.033  -3357609.171
10 0 59916  82062.000000  0   -1233201.639   5392031.701  -4114047.355
10 0 59916  82182.000000  0    -917470.898   4864176.596  -4798387.312
10 0 59916  82302.000000  0    -595816.788   4246190.290  -5398725.497
10 0 59916  82422.000000  0    -275324.132   3548850.019  -5904648.541
10 0 59916  82542.000000  0      37155.786   2784403.721  -6307404.843
10 0 59916  82662.000000  0     335146.176   1966348.650  -6600043.997
10 0 59916  82782.000000  0     612673.505   1109192.362  -6777525.654
10 0 59916  82902.000000  0     864382.922    228197.289  -6836797.861
10 0 59916  83022.000000  0    1085638.058   -660886.583  -6776843.603
10 0 59916  83142.000000  0    1272603.667  -1542097.389  -6598694.974
10 0 59916  83262.000000  0    1422310.373  -2399539.748  -6305416.496
10 0 59916  83382.000000  0    1532701.747  -3217664.357  -5902059.489
10 0 59916  83502.000000  0    1602661.896  -3981547.599  -5395585.694
10 0 59916  83622.000000  0    1632022.889  -4677164.837  -4794756.790
10 0 59916  83742.000000  0    1621552.968  -5291649.900  -4109993.438
10 0 59916  83862.000000  0    1572924.536  -5813540.406  -3353205.812
10 0 59916  83982.000000  0    1488661.521  -6233001.890  -2537593.997
10 0 59916  84102.000000  0    1372068.635  -6542024.463  -1677422.001
10 0 59916  84222.000000  0    1227143.401  -6734587.510   -787768.854
10 0 59916  84342.000000  0    1058471.225  -6806787.850    115739.005
10 0 59916  84462.000000  0     871108.334  -6756926.042   1017208.473
10 0 59916  84582.000000  0     670453.759  -6585549.717   1900767.252
10 0 59916  84702.000000  0     462114.779  -6295451.508   2750853.412
10 0 59916  84822.000000  0     251768.220  -5891619.690   3552498.893
10 0 59916  84942.000000  0      45020.942  -5381144.597   4291598.379
10 0 59916  85062.000000  0    -152725.624  -4773085.919   4955160.393
10 0 59916  85182.000000  0    -336404.013  -4078301.778   5531536.355
10 0 59916  85302.000000  0    -501398.938  -3309245.140   6010623.255
10 0 59916  85422.000000  0    -643653.277  -2479730.544   6384036.261
10 0 59916  85542.000000  0    -759759.520  -1604679.721   6645247.371
10 0 59916  85662.000000  0    -847035.021   -699851.139   6789693.584
10 0 59916  85782.000000  0    -903580.268    218445.207   6814853.016
10 0 59916  85902.000000  0    -928318.673   1133642.111   6720286.245
10 0 59916  86022.000000  0    -921016.453   2029213.562   6507643.348
10 0 59916  86142.000000  0    -882283.155   2888972.529   6180636.853
10 0 59916  86262.000000  0    -813553.236   3697364.029   5744981.222
99
